NORAD_CAT_ID,OBJECT_NAME,OBJECT_TYPE,EPOCH,MEAN_MOTION,ECCENTRICITY,INCLINATION,RA_OF_ASC_NODE,ARG_OF_PERICENTER,MEAN_ANOMALY,BSTAR,MEAN_MOTION_DOT,MEAN_MOTION_DDOT,TLE_LINE0,TLE_LINE1,TLE_LINE2,SEMIMAJOR_AXIS,PERIOD,APOGEE,PERIGEE,DECAYED
56494.0,STARLINK-5530,PAYLOAD,2023-10-16 16:28:22,15.69933821,0.0003755,69.9986,158.3623,264.3575,95.7192,9.6776e-05,0.00011445,0.0,0 STARLINK-5530,1 56494U 23064AY  23289.68636973  .00011445  00000-0  96776-4 0  9999,2 56494  69.9986 158.3623 0003755 264.3575  95.7192 15.69933821 25329,6737.223,91.724,361.618,356.559,0.0
56494.0,STARLINK-5530,PAYLOAD,2023-10-18 00:35:09,15.69936051,0.0004031,69.9991,154.6019,271.0929,88.9805,7.6239e-05,8.969e-05,0.0,0 STARLINK-5530,1 56494U 23064AY  23291.02441932  .00008969  00000-0  76239-4 0  9998,2 56494  69.9991 154.6019 0004031 271.0929  88.9805 15.69936051 25186,6737.217,91.723,361.798,356.366,0.0
56494.0,STARLINK-5530,PAYLOAD,2023-10-18 08:13:55,15.69921485,0.0003329,69.9977,153.7049,270.8258,89.2556,1.3171e-05,1.371e-05,0.0,0 STARLINK-5530,1 56494U 23064AY  23291.34300703  .00001371  00000-0  13171-4 0  9999,2 56494  69.9977 153.7049 0003329 270.8258  89.2556 15.69921485 25580,6737.259,91.724,361.366,356.881,0.0
56494.0,STARLINK-5530,PAYLOAD,2023-10-19 01:03:11,15.69937548,0.0003736,69.9961,151.7334,270.0424,90.0343,2.8363e-05,3.201e-05,0.0,0 STARLINK-5530,1 56494U 23064AY  23292.04388157  .00003201  00000-0  28363-4 0  9999,2 56494  69.9961 151.7334 0003736 270.0424  90.0343 15.69937548 25690,6737.213,91.723,361.595,356.561,0.0
56494.0,STARLINK-5530,PAYLOAD,2023-10-19 14:48:58,15.69921522,0.0003461,69.9979,150.121,269.7082,90.3717,1.6867e-05,1.816e-05,0.0,0 STARLINK-5530,1 56494U 23064AY  23292.61733936  .00001816  00000-0  16867-4 0  9997,2 56494  69.9979 150.1210 0003461 269.7082  90.3717 15.69921522 25430,6737.259,91.724,361.455,356.792,0.0
56494.0,STARLINK-5530,PAYLOAD,2023-10-19 20:55:58,15.69923672,0.000348,69.9981,149.4039,269.9702,90.1095,1.8521e-05,2.015e-05,0.0,0 STARLINK-5530,1 56494U 23064AY  23292.87220538  .00002015  00000-0  18521-4 0  9995,2 56494  69.9981 149.4039 0003480 269.9702  90.1095 15.69923672 25823,6737.252,91.724,361.462,356.773,0.0
56494.0,STARLINK-5530,PAYLOAD,2023-10-19 22:27:43,15.69923957,0.0003443,69.998,149.2248,270.0474,90.0327,1.906e-05,2.08e-05,0.0,0 STARLINK-5530,1 56494U 23064AY  23292.93592198  .00002080  00000-0  19060-4 0  9997,2 56494  69.9980 149.2248 0003443 270.0474  90.0327 15.69923957 25485,6737.252,91.724,361.436,356.797,0.0
56494.0,STARLINK-5530,PAYLOAD,2023-10-19 23:59:29,15.69914471,0.0003534,69.9975,149.0451,271.1496,88.9295,4.7371e-05,5.485e-05,0.0,0 STARLINK-5530,1 56494U 23064AY  23292.99964328  .00005485  00000-0  47371-4 0  9999,2 56494  69.9975 149.0451 0003534 271.1496  88.9295 15.69914471 25841,6737.279,91.725,361.525,356.763,0.0
56494.0,STARLINK-5530,PAYLOAD,2023-10-20 13:45:15,15.69917103,0.0003386,69.9976,147.4338,270.7323,89.3485,-1.4781e-05,-1.989e-05,0.0,0 STARLINK-5530,1 56494U 23064AY  23293.57309402 -.00001989  00000-0 -14781-4 0  9996,2 56494  69.9976 147.4338 0003386 270.7323  89.3485 15.69917103 25589,6737.271,91.725,361.417,356.855,0.0
56494.0,STARLINK-5530,PAYLOAD,2023-10-21 00:27:31,15.69930694,0.0002707,69.997,146.1808,286.7544,73.3354,1.6027e-06,-2e-07,0.0,0 STARLINK-5530,1 56494U 23064AY  23294.01910884 -.00000020  00000-0  16027-5 0  9998,2 56494  69.9970 146.1808 0002707 286.7544  73.3354 15.69930694 26005,6737.232,91.724,360.921,357.274,0.0
56494.0,STARLINK-5530,PAYLOAD,2023-10-21 14:13:16,15.69934489,0.0002877,69.996,144.5684,272.6514,87.4352,2.5178e-05,2.817e-05,0.0,0 STARLINK-5530,1 56494U 23064AY  23294.59254949  .00002817  00000-0  25178-4 0  9995,2 56494  69.9960 144.5684 0002877 272.6514  87.4352 15.69934489 25747,6737.221,91.724,361.025,357.148,0.0
56494.0,STARLINK-5530,PAYLOAD,2023-10-21 21:52:02,15.69925893,0.0003494,69.9982,143.672,275.6753,84.4044,1.2696e-05,1.314e-05,0.0,0 STARLINK-5530,1 56494U 23064AY  23294.91113932  .00001314  00000-0  12696-4 0  9999,2 56494  69.9982 143.6720 0003494 275.6753  84.4044 15.69925893 25795,6737.246,91.724,361.465,356.757,0.0
56494.0,STARLINK-5530,PAYLOAD,2023-10-21 23:23:48,15.69918957,0.000328,69.9977,143.4913,270.2625,89.8194,5.82e-06,4.87e-06,0.0,0 STARLINK-5530,1 56494U 23064AY  23294.97486164  .00000487  00000-0  58200-5 0  9997,2 56494  69.9977 143.4913 0003280 270.2625  89.8194 15.69918957 26152,6737.266,91.724,361.341,356.921,0.0
56494.0,STARLINK-5530,PAYLOAD,2023-10-22 17:45:22,15.68781864,0.0002859,69.9977,141.3406,279.9223,80.165,-0.00015567,-0.00018027,0.0,0 STARLINK-5530,1 56494U 23064AY  23295.73984058 -.00018027  00000-0 -15567-3 0  9995,2 56494  69.9977 141.3406 0002859 279.9223  80.1650 15.68781864 26275,6740.521,91.791,364.313,360.459,0.0
56494.0,STARLINK-5530,PAYLOAD,2023-10-23 06:00:00,15.67642916,0.0003619,69.9991,139.9125,270.6172,89.2449,-0.0094601,-0.00942123,0.0,0 STARLINK-5530,1 56494U 23064AY  23296.25001157 -.00942123  00000-0 -94601-2 0  9991,2 56494  69.9991 139.9125 0003619 270.6172  89.2449 15.67642916 26356,6743.785,91.858,368.091,363.21,0.0
56494.0,STARLINK-5530,PAYLOAD,2023-10-23 22:00:00,15.66316964,0.0003381,69.9995,138.0463,272.6684,246.8016,-0.0094469,-0.00895643,0.0,0 STARLINK-5530,1 56494U 23064AY  23296.91667824 -.00895643  00000-0 -94469-2 0  9999,2 56494  69.9995 138.0463 0003381 272.6684 246.8016 15.66316964 26464,6747.591,91.935,371.737,367.174,0.0
56494.0,STARLINK-5530,PAYLOAD,2023-10-24 14:00:01,15.6503427,0.0003631,69.9994,136.1839,265.3988,50.5286,-0.010204,-0.0091689,0.0,0 STARLINK-5530,1 56494U 23064AY  23297.58334491 -.00916890  00000-0 -10204-1 0  9996,2 56494  69.9994 136.1839 0003631 265.3988  50.5286 15.65034270 26569,6751.277,92.011,375.594,370.691,0.0
56494.0,STARLINK-5530,PAYLOAD,2023-10-24 16:00:01,15.64884903,0.000359,69.9992,135.9512,268.8818,156.4488,-0.010616,-0.00945401,0.0,0 STARLINK-5530,1 56494U 23064AY  23297.66668981 -.00945401  00000-0 -10616-1 0  9996,2 56494  69.9992 135.9512 0003590 268.8818 156.4488 15.64884903  5995,6751.707,92.02,375.996,371.148,0.0
56494.0,STARLINK-5530,PAYLOAD,2023-10-25 14:00:01,15.63072542,0.0003397,69.9989,133.3965,266.2995,278.4692,-0.010879,-0.00905386,0.0,0 STARLINK-5530,1 56494U 23064AY  23298.58334491 -.00905386  00000-0 -10879-1 0  9993,2 56494  69.9989 133.3965 0003397 266.2995 278.4692 15.63072542 26721,6756.925,92.126,381.085,376.494,0.0
56494.0,STARLINK-5530,PAYLOAD,2023-10-26 06:00:00,15.61762815,0.0003525,69.9983,131.5425,268.8581,64.5728,-0.011791,-0.00929928,0.0,0 STARLINK-5530,1 56494U 23064AY  23299.25001157 -.00929928  00000-0 -11791-1 0  9990,2 56494  69.9983 131.5425 0003525 268.8581  64.5728 15.61762815 26820,6760.702,92.204,384.95,380.184,0.0
56494.0,STARLINK-5530,PAYLOAD,2023-10-26 14:00:01,15.61125634,0.0003532,69.9983,130.6172,268.7058,137.8607,-0.011987,-0.00922974,0.0,0 STARLINK-5530,1 56494U 23064AY  23299.58334491 -.00922974  00000-0 -11987-1 0  9997,2 56494  69.9983 130.6172 0003532 268.7058 137.8607 15.61125634  5981,6762.541,92.241,386.795,382.018,0.0
56494.0,STARLINK-5530,PAYLOAD,2023-10-26 16:00:00,15.60975471,0.0003413,69.9982,130.386,269.5665,245.1658,-0.012481,-0.0095242,0.0,0 STARLINK-5530,1 56494U 23064AY  23299.66667824 -.00952420  00000-0 -12481-1 0  9994,2 56494  69.9982 130.3860 0003413 269.5665 245.1658 15.60975471  5993,6762.975,92.25,387.148,382.532,0.0
56494.0,STARLINK-5530,PAYLOAD,2023-10-30 11:49:02,15.56779134,0.0008516,69.997,119.8252,225.6581,134.3911,-0.00085429,-0.00061206,0.0,0 STARLINK-5530,1 56494U 23064AY  23303.49238706 -.00061206  00000-0 -85429-3 0  9991,2 56494  69.9970 119.8252 0008516 225.6581 134.3911 15.56779134 27488,6775.123,92.499,402.758,391.218,0.0
56494.0,STARLINK-5530,PAYLOAD,2023-10-30 22:00:00,15.52607712,0.0003394,69.9981,118.6673,276.9917,289.3734,-0.015516,-0.00873169,0.0,0 STARLINK-5530,1 56494U 23064AY  23303.91667824 -.00873169  00000-0 -15516-1 0  9992,2 56494  69.9981 118.6673 0003394 276.9917 289.3734 15.52607712 27555,6787.253,92.747,411.421,406.814,0.0
56494.0,STARLINK-5530,PAYLOAD,2023-10-31 14:00:01,15.51347707,0.0003573,69.9982,116.8427,271.7836,58.1792,-0.017569,-0.00951473,0.0,0 STARLINK-5530,1 56494U 23064AY  23304.58334491 -.00951473  00000-0 -17569-1 0  9992,2 56494  69.9982 116.8427 0003573 271.7836  58.1792 15.51347707 27656,6790.927,92.823,415.219,410.366,0.0
56494.0,STARLINK-5530,PAYLOAD,2023-10-31 22:00:01,15.50657152,0.0003581,69.998,115.9316,279.6136,111.0648,-0.01679,-0.0088027,0.0,0 STARLINK-5530,1 56494U 23064AY  23304.91668981 -.00880270  00000-0 -16790-1 0  9994,2 56494  69.9980 115.9316 0003581 279.6136 111.0648 15.50657152  5999,6792.943,92.864,417.241,412.376,0.0
56494.0,STARLINK-5530,PAYLOAD,2023-11-01 14:00:01,15.49389761,0.0003389,69.9987,114.1124,275.0574,234.5271,-0.018766,-0.00948125,0.0,0 STARLINK-5530,1 56494U 23064AY  23305.58335648 -.00948125  00000-0 -18766-1 0  9998,2 56494  69.9987 114.1124 0003389 275.0574 234.5271 15.49389761 27810,6796.647,92.94,420.815,416.209,0.0
56494.0,STARLINK-5530,PAYLOAD,2023-11-01 22:00:00,15.48695599,0.000344,69.9984,113.2039,279.7503,288.0752,-0.017881,-0.00874986,0.0,0 STARLINK-5530,1 56494U 23064AY  23305.91667824 -.00874986  00000-0 -17881-1 0  9999,2 56494  69.9984 113.2039 0003440 279.7503 288.0752 15.48695599  6030,6798.678,92.981,422.882,418.204,0.0
56494.0,STARLINK-5530,PAYLOAD,2023-11-02 14:00:01,15.47438785,0.0003537,69.9989,111.3898,273.8767,48.158,-0.020314,-0.00957636,0.0,0 STARLINK-5530,1 56494U 23064AY  23306.58334491 -.00957636  00000-0 -20314-1 0  9993,2 56494  69.9989 111.3898 0003537 273.8767  48.1580 15.47438785  5776,6802.359,93.057,426.63,421.818,0.0
56494.0,STARLINK-5530,PAYLOAD,2023-11-02 22:00:01,15.46742288,0.0003578,69.9987,110.4839,281.0751,96.9833,-0.019231,-0.00890432,0.0,0 STARLINK-5530,1 56494U 23064AY  23306.91668981 -.00890432  00000-0 -19231-1 0  9990,2 56494  69.9987 110.4839 0003578 281.0751  96.9833 15.46742288 28028,6804.401,93.099,428.7,423.831,0.0
